{"type": "FeatureCollection", "features": [ {"type": "Feature", "properties": {"norad_id": 66796, "name": "STARLINK-35964", "group": "last-30-days", "lat": 4.199977583831727, "lon": 38.523033625341625, "alt_km": 328.1878453472482, "timestamp": "2025-12-17T07:00:45.612655+00:00", "meta": {"OBJECT_NAME": "STARLINK-35964", "OBJECT_ID": "2025-278F", "EPOCH": "2025-12-16T22:00:03.000096", "MEAN_MOTION": 15.81492565, "ECCENTRICITY": 0.00015916, "INCLINATION": 42.9929, "RA_OF_ASC_NODE": 225.3436, "ARG_OF_PERICENTER": 287.7131, "MEAN_ANOMALY": 266.1215, "EPHEMERIS_TYPE": 0, "CLASSIFICATION_TYPE": "U", "NORAD_CAT_ID": 66796, "ELEMENT_SET_NO": 999, "REV_AT_EPOCH": 347, "BSTAR": -0.005082637, "MEAN_MOTION_DOT": -0.0093799, "MEAN_MOTION_DDOT": 0}, "tle": {"line1": "1 66796U 25278F   25350.91670139 -.00937990  00000+0 -50826-2 0  9990", "line2": "2 66796  42.9929 225.3436 0001591 287.7131 266.1215 15.81492565  3474"}}, "geometry": {"type": "Point", "coordinates": [38.523033625341625, 4.199977583831727]}}, {"type": "Feature", "properties": {"norad_id": 66797, "name": "STARLINK-36099", "group": "last-30-days", "lat": 35.55487761043497, "lon": -85.65961866981436, "alt_km": 339.8426784497233, "timestamp": "2025-12-17T07:00:45.612665+00:00", "meta": {"OBJECT_NAME": "STARLINK-36099", "OBJECT_ID": "2025-278G", "EPOCH": "2025-12-16T22:00:03.000096", "MEAN_MOTION": 15.75204863, "ECCENTRICITY": 0.00017906, "INCLINATION": 42.9988, "RA_OF_ASC_NODE": 226.529, "ARG_OF_PERICENTER": 280.8923, "MEAN_ANOMALY": 165.8837, "EPHEMERIS_TYPE": 0, "CLASSIFICATION_TYPE": "U", "NORAD_CAT_ID": 66797, "ELEMENT_SET_NO": 999, "REV_AT_EPOCH": 368, "BSTAR": -0.0018127604, "MEAN_MOTION_DOT": -0.00272134, "MEAN_MOTION_DDOT": 0}, "tle": {"line1": "1 66797U 25278G   25350.91670139 -.00272134  00000+0 -18128-2 0  9992", "line2": "2 66797  42.9988 226.5290 0001790 280.8923 165.8837 15.75204863  3688"}}, "geometry": {"type": "Point", "coordinates": [-85.65961866981436, 35.55487761043497]}}, {"type": "Feature", "properties": {"norad_id": 66798, "name": "STARLINK-36041", "group": "last-30-days", "lat": 36.3765184799241, "lon": -83.5174461033638, "alt_km": 340.0321337890491, "timestamp": "2025-12-17T07:00:45.612675+00:00", "meta": {"OBJECT_NAME": "STARLINK-36041", "OBJECT_ID": "2025-278H", "EPOCH": "2025-12-16T22:00:03.000096", "MEAN_MOTION": 15.75181282, "ECCENTRICITY": 0.00020501, "INCLINATION": 42.9986, "RA_OF_ASC_NODE": 226.5239, "ARG_OF_PERICENTER": 268.7049, "MEAN_ANOMALY": 180.0062, "EPHEMERIS_TYPE": 0, "CLASSIFICATION_TYPE": "U", "NORAD_CAT_ID": 66798, "ELEMENT_SET_NO": 999, "REV_AT_EPOCH": 347, "BSTAR": -0.0015669675, "MEAN_MOTION_DOT": -0.00236063, "MEAN_MOTION_DDOT": 0}, "tle": {"line1": "1 66798U 25278H   25350.91670139 -.00236063  00000+0 -15670-2 0  9993", "line2": "2 66798  42.9986 226.5239 0002050 268.7049 180.0062 15.75181282  3479"}}, "geometry": {"type": "Point", "coordinates": [-83.5174461033638, 36.3765184799241]}}, {"type": "Feature", "properties": {"norad_id": 66799, "name": "STARLINK-36044", "group": "last-30-days", "lat": 37.15537771479556, "lon": -81.34111234398824, "alt_km": 339.75070855557533, "timestamp": "2025-12-17T07:00:45.612686+00:00", "meta": {"OBJECT_NAME": "STARLINK-36044", "OBJECT_ID": "2025-278J", "EPOCH": "2025-12-16T22:00:03.000096", "MEAN_MOTION": 15.75129076, "ECCENTRICITY": 0.0001772, "INCLINATION": 42.9987, "RA_OF_ASC_NODE": 226.5193, "ARG_OF_PERICENTER": 266.8145, "MEAN_ANOMALY": 183.8393, "EPHEMERIS_TYPE": 0, "CLASSIFICATION_TYPE": "U", "NORAD_CAT_ID": 66799, "ELEMENT_SET_NO": 999, "REV_AT_EPOCH": 362, "BSTAR": -0.001041729, "MEAN_MOTION_DOT": -0.00158163, "MEAN_MOTION_DDOT": 0}, "tle": {"line1": "1 66799U 25278J   25350.91670139 -.00158163  00000+0 -10417-2 0  9992", "line2": "2 66799  42.9987 226.5193 0001772 266.8145 183.8393 15.75129076  3624"}}, "geometry": {"type": "Point", "coordinates": [-81.34111234398824, 37.15537771479556]}}, {"type": "Feature", "properties": {"norad_id": 66800, "name": "STARLINK-35996", "group": "last-30-days", "lat": 38.59106032927891, "lon": -76.84883319717572, "alt_km": 339.40935747935873, "timestamp": "2025-12-17T07:00:45.612696+00:00", "meta": {"OBJECT_NAME": "STARLINK-35996", "OBJECT_ID": "2025-278K", "EPOCH": "2025-12-16T22:00:03.000096", "MEAN_MOTION": 15.75044021, "ECCENTRICITY": 0.00017298, "INCLINATION": 42.9986, "RA_OF_ASC_NODE": 226.5091, "ARG_OF_PERICENTER": 271.826, "MEAN_ANOMALY": 182.6991, "EPHEMERIS_TYPE": 0, "CLASSIFICATION_TYPE": "U", "NORAD_CAT_ID": 66800, "ELEMENT_SET_NO": 999, "REV_AT_EPOCH": 342, "BSTAR": -0.00012894531, "MEAN_MOTION_DOT": -0.00020242, "MEAN_MOTION_DDOT": 0}, "tle": {"line1": "1 66800U 25278K   25350.91670139 -.00020242  00000+0 -12895-3 0  9994", "line2": "2 66800  42.9986 226.5091 0001729 271.8260 182.6991 15.75044021  3424"}}, "geometry": {"type": "Point", "coordinates": [-76.84883319717572, 38.59106032927891]}}, {"type": "Feature", "properties": {"norad_id": 66801, "name": "STARLINK-36080", "group": "last-30-days", "lat": 41.35395755958149, "lon": -64.95015024959555, "alt_km": 339.39003644772947, "timestamp": "2025-12-17T07:00:45.612708+00:00", "meta": {"OBJECT_NAME": "STARLINK-36080", "OBJECT_ID": "2025-278L", "EPOCH": "2025-12-16T22:00:03.000096", "MEAN_MOTION": 15.74947013, "ECCENTRICITY": 0.00022501, "INCLINATION": 42.9986, "RA_OF_ASC_NODE": 226.4849, "ARG_OF_PERICENTER": 260.1611, "MEAN_ANOMALY": 203.9496, "EPHEMERIS_TYPE": 0, "CLASSIFICATION_TYPE": "U", "NORAD_CAT_ID": 66801, "ELEMENT_SET_NO": 999, "REV_AT_EPOCH": 363, "BSTAR": 0.00084321012, "MEAN_MOTION_DOT": 0.00130549, "MEAN_MOTION_DDOT": 0}, "tle": {"line1": "1 66801U 25278L   25350.91670139  .00130549  00000+0  84321-3 0  9998", "line2": "2 66801  42.9986 226.4849 0002250 260.1611 203.9496 15.74947013  3638"}}, "geometry": {"type": "Point", "coordinates": [-64.95015024959555, 41.35395755958149]}}, {"type": "Feature", "properties": {"norad_id": 66802, "name": "STARLINK-35604", "group": "last-30-days", "lat": 37.89637206321973, "lon": -79.11059306725191, "alt_km": 339.47680452239183, "timestamp": "2025-12-17T07:00:45.612722+00:00", "meta": {"OBJECT_NAME": "STARLINK-35604", "OBJECT_ID": "2025-278M", "EPOCH": "2025-12-16T22:00:03.000096", "MEAN_MOTION": 15.75088461, "ECCENTRICITY": 0.0001825, "INCLINATION": 42.9984, "RA_OF_ASC_NODE": 226.5144, "ARG_OF_PERICENTER": 281.6789, "MEAN_ANOMALY": 170.9113, "EPHEMERIS_TYPE": 0, "CLASSIFICATION_TYPE": "U", "NORAD_CAT_ID": 66802, "ELEMENT_SET_NO": 999, "REV_AT_EPOCH": 363, "BSTAR": -0.00061696899, "MEAN_MOTION_DOT": -0.00094404, "MEAN_MOTION_DDOT": 0}, "tle": {"line1": "1 66802U 25278M   25350.91670139 -.00094404  00000+0 -61697-3 0  9991", "line2": "2 66802  42.9984 226.5144 0001825 281.6789 170.9113 15.75088461  3630"}}, "geometry": {"type": "Point", "coordinates": [-79.11059306725191, 37.89637206321973]}}, {"type": "Feature", "properties": {"norad_id": 66803, "name": "STARLINK-35565", "group": "last-30-days", "lat": 39.24334270939468, "lon": -74.53436626398654, "alt_km": 339.34624822586466, "timestamp": "2025-12-17T07:00:45.612732+00:00", "meta": {"OBJECT_NAME": "STARLINK-35565", "OBJECT_ID": "2025-278N", "EPOCH": "2025-12-16T22:00:03.000096", "MEAN_MOTION": 15.75039107, "ECCENTRICITY": 0.00016942, "INCLINATION": 42.9985, "RA_OF_ASC_NODE": 226.5046, "ARG_OF_PERICENTER": 267.8075, "MEAN_ANOMALY": 188.6413, "EPHEMERIS_TYPE": 0, "CLASSIFICATION_TYPE": "U", "NORAD_CAT_ID": 66803, "ELEMENT_SET_NO": 999, "REV_AT_EPOCH": 371, "BSTAR": -0.00011720448, "MEAN_MOTION_DOT": -0.00018442, "MEAN_MOTION_DDOT": 0}, "tle": {"line1": "1 66803U 25278N   25350.91670139 -.00018442  00000+0 -11720-3 0  9992", "line2": "2 66803  42.9985 226.5046 0001694 267.8075 188.6413 15.75039107  3712"}}, "geometry": {"type": "Point", "coordinates": [-74.53436626398654, 39.24334270939468]}}, {"type": "Feature", "properties": {"norad_id": 66804, "name": "STARLINK-36038", "group": "last-30-days", "lat": 39.83854266447913, "lon": -72.22171729896016, "alt_km": 339.53486666579283, "timestamp": "2025-12-17T07:00:45.612742+00:00", "meta": {"OBJECT_NAME": "STARLINK-36038", "OBJECT_ID": "2025-278P", "EPOCH": "2025-12-16T22:00:03.000096", "MEAN_MOTION": 15.74959742, "ECCENTRICITY": 0.00021346, "INCLINATION": 42.9987, "RA_OF_ASC_NODE": 226.4994, "ARG_OF_PERICENTER": 258.9598, "MEAN_ANOMALY": 199.4146, "EPHEMERIS_TYPE": 0, "CLASSIFICATION_TYPE": "U", "NORAD_CAT_ID": 66804, "ELEMENT_SET_NO": 999, "REV_AT_EPOCH": 363, "BSTAR": 0.0007264825, "MEAN_MOTION_DOT": 0.00112226, "MEAN_MOTION_DDOT": 0}, "tle": {"line1": "1 66804U 25278P   25350.91670139  .00112226  00000+0  72648-3 0  9992", "line2": "2 66804  42.9987 226.4994 0002134 258.9598 199.4146 15.74959742  3636"}}, "geometry": {"type": "Point", "coordinates": [-72.22171729896016, 39.83854266447913]}}, {"type": "Feature", "properties": {"norad_id": 66805, "name": "STARLINK-36049", "group": "last-30-days", "lat": 40.91118469851141, "lon": -67.35349622645451, "alt_km": 338.85832453328294, "timestamp": "2025-12-17T07:00:45.612753+00:00", "meta": {"OBJECT_NAME": "STARLINK-36049", "OBJECT_ID": "2025-278Q", "EPOCH": "2025-12-16T22:00:03.000096", "MEAN_MOTION": 15.75011418, "ECCENTRICITY": 0.0001401, "INCLINATION": 42.9987, "RA_OF_ASC_NODE": 226.4899, "ARG_OF_PERICENTER": 273.6833, "MEAN_ANOMALY": 188.5199, "EPHEMERIS_TYPE": 0, "CLASSIFICATION_TYPE": "U", "NORAD_CAT_ID": 66805, "ELEMENT_SET_NO": 999, "REV_AT_EPOCH": 363, "BSTAR": 0.00023653153, "MEAN_MOTION_DOT": 0.00035966, "MEAN_MOTION_DDOT": 0}, "tle": {"line1": "1 66805U 25278Q   25350.91670139  .00035966  00000+0  23653-3 0  9990", "line2": "2 66805  42.9987 226.4899 0001401 273.6833 188.5199 15.75011418  3630"}}, "geometry": {"type": "Point", "coordinates": [-67.35349622645451, 40.91118469851141]}}]}